[{"OBJECT_NAME":"KUIPER-00168","OBJECT_ID":"2025-217V","EPOCH":"2026-03-09T06:15:00.798624","MEAN_MOTION":14.79965894,"ECCENTRICITY":0.00010664,"INCLINATION":51.903,"RA_OF_ASC_NODE":29.9974,"ARG_OF_PERICENTER":89.3671,"MEAN_ANOMALY":270.7414,"EPHEMERIS_TYPE":0,"CLASSIFICATION_TYPE":"U","NORAD_CAT_ID":65781,"ELEMENT_SET_NO":999,"REV_AT_EPOCH":2502,"BSTAR":0.00079707781,"MEAN_MOTION_DOT":5.865e-5,"MEAN_MOTION_DDOT":0},{"OBJECT_NAME":"COSMOS 2251 DEB","OBJECT_ID":"1993-036ABN","EPOCH":"2026-03-09T02:02:00.090528","MEAN_MOTION":14.55401544,"ECCENTRICITY":0.01532453,"INCLINATION":74.0404,"RA_OF_ASC_NODE":298.7655,"ARG_OF_PERICENTER":0.8843,"MEAN_ANOMALY":359.256,"EPHEMERIS_TYPE":0,"CLASSIFICATION_TYPE":"U","NORAD_CAT_ID":34823,"ELEMENT_SET_NO":999,"REV_AT_EPOCH":89637,"BSTAR":0.00050594057,"MEAN_MOTION_DOT":2.542e-5,"MEAN_MOTION_DDOT":0}]
